{
  "type": "FeatureCollection",
  "features": [
    {
      "type": "Feature",
      "properties": {
        "group_index": 0,
        "value": 300,
        "center": [
          29.049947535972926,
          41.004039788456026
        ],
        "ada_parsel": "1101-8",
        "AA_MINS": 5,
        "TOTAL_POP": 6606
      },
      "geometry": {
        "coordinates": [
          [
            [
              29.046414,
              41.006093
            ],
            [
              29.046428,
              41.003097
            ],
            [
              29.046733,
              41.002346
            ],
            [
              29.047376,
              41.001925
            ],
            [
              29.047736,
              41.001766
            ],
            [
              29.051046,
              41.000747
            ],
            [
              29.051932,
              41.000581
            ],
            [
              29.052448,
              41.000854
            ],
            [
              29.053097,
              41.001437
            ],
            [
              29.053169,
              41.001543
            ],
            [
              29.052734,
              41.006238
            ],
            [
              29.052351,
              41.007089
            ],
            [
              29.052073,
              41.007318
            ],
            [
              29.050497,
              41.007216
            ],
            [
              29.048102,
              41.007047
            ],
            [
              29.04703,
              41.006791
            ],
            [
              29.046888,
              41.006745
            ],
            [
              29.046551,
              41.006618
            ],
            [
              29.046414,
              41.006093
            ]
          ]
        ],
        "type": "Polygon"
      }
    },
    {
      "type": "Feature",
      "properties": {
        "group_index": 0,
        "value": 600,
        "center": [
          29.049947535972926,
          41.004039788456026
        ],
        "ada_parsel": "1101-8",
        "AA_MINS": 10,
        "TOTAL_POP": 12915
      },
      "geometry": {
        "coordinates": [
          [
            [
              29.043532,
              41.009456
            ],
            [
              29.043537,
              41.00935
            ],
            [
              29.043227,
              41.005549
            ],
            [
              29.042337,
              41.002777
            ],
            [
              29.042268,
              41.002424
            ],
            [
              29.044975,
              41.00104
            ],
            [
              29.050056,
              40.998337
            ],
            [
              29.050259,
              40.998344
            ],
            [
              29.050397,
              40.998367
            ],
            [
              29.056355,
              40.998973
            ],
            [
              29.05678,
              40.999608
            ],
            [
              29.056869,
              40.999957
            ],
            [
              29.056537,
              41.000779
            ],
            [
              29.056478,
              41.006311
            ],
            [
              29.056492,
              41.00667
            ],
            [
              29.054225,
              41.010618
            ],
            [
              29.053911,
              41.010795
            ],
            [
              29.053549,
              41.010721
            ],
            [
              29.047569,
              41.01067
            ],
            [
              29.043728,
              41.009678
            ],
            [
              29.043723,
              41.009674
            ],
            [
              29.043532,
              41.009456
            ]
          ]
        ],
        "type": "Polygon"
      }
    },
    {
      "type": "Feature",
      "properties": {
        "group_index": 0,
        "value": 900,
        "center": [
          29.049947535972926,
          41.004039788456026
        ],
        "ada_parsel": "1101-8",
        "AA_MINS": 15,
        "TOTAL_POP": 19213
      },
      "geometry": {
        "coordinates": [
          [
            [
              29.039594,
              41.011343
            ],
            [
              29.039397,
              41.009685
            ],
            [
              29.039323,
              41.009041
            ],
            [
              29.03753,
              41.003678
            ],
            [
              29.037462,
              41.003325
            ],
            [
              29.038796,
              41.000201
            ],
            [
              29.039049,
              40.999944
            ],
            [
              29.039229,
              40.999936
            ],
            [
              29.039683,
              41.000021
            ],
            [
              29.040963,
              41.000074
            ],
            [
              29.045472,
              40.996135
            ],
            [
              29.045574,
              40.99579
            ],
            [
              29.049048,
              40.995444
            ],
            [
              29.053096,
              40.99685
            ],
            [
              29.057604,
              40.997161
            ],
            [
              29.06065,
              40.997896
            ],
            [
              29.060798,
              40.998224
            ],
            [
              29.060577,
              40.998323
            ],
            [
              29.058699,
              40.999994
            ],
            [
              29.058525,
              41.004271
            ],
            [
              29.059997,
              41.005913
            ],
            [
              29.06013,
              41.00614
            ],
            [
              29.060263,
              41.006367
            ],
            [
              29.059895,
              41.008277
            ],
            [
              29.057498,
              41.013084
            ],
            [
              29.056007,
              41.013672
            ],
            [
              29.053208,
              41.013832
            ],
            [
              29.047743,
              41.01323
            ],
            [
              29.047691,
              41.013209
            ],
            [
              29.047677,
              41.0132
            ],
            [
              29.042597,
              41.011528
            ],
            [
              29.040397,
              41.011728
            ],
            [
              29.040158,
              41.011736
            ],
            [
              29.039752,
              41.011667
            ],
            [
              29.039594,
              41.011343
            ]
          ]
        ],
        "type": "Polygon"
      }
    },
    {
      "type": "Feature",
      "properties": {
        "group_index": 0,
        "value": 300,
        "center": [
          29.049932360088714,
          41.00405552763725
        ],
        "ada_parsel": "1103-8",
        "AA_MINS": 5,
        "TOTAL_POP": 6513
      },
      "geometry": {
        "coordinates": [
          [
            [
              29.046398,
              41.006079
            ],
            [
              29.046421,
              41.0031
            ],
            [
              29.046724,
              41.00235
            ],
            [
              29.047376,
              41.001925
            ],
            [
              29.047737,
              41.001764
            ],
            [
              29.051059,
              41.000745
            ],
            [
              29.051908,
              41.000586
            ],
            [
              29.052426,
              41.000859
            ],
            [
              29.053097,
              41.001437
            ],
            [
              29.053167,
              41.001541
            ],
            [
              29.052721,
              41.006222
            ],
            [
              29.052364,
              41.007105
            ],
            [
              29.052086,
              41.007334
            ],
            [
              29.048087,
              41.007058
            ],
            [
              29.046881,
              41.006763
            ],
            [
              29.046545,
              41.006635
            ],
            [
              29.046398,
              41.006079
            ]
          ]
        ],
        "type": "Polygon"
      }
    },
    {
      "type": "Feature",
      "properties": {
        "group_index": 0,
        "value": 600,
        "center": [
          29.049932360088714,
          41.00405552763725
        ],
        "ada_parsel": "1103-8",
        "AA_MINS": 10,
        "TOTAL_POP": 12747
      },
      "geometry": {
        "coordinates": [
          [
            [
              29.043517,
              41.009441
            ],
            [
              29.043517,
              41.009362
            ],
            [
              29.043203,
              41.005552
            ],
            [
              29.042315,
              41.002781
            ],
            [
              29.042247,
              41.002428
            ],
            [
              29.044961,
              41.001024
            ],
            [
              29.050074,
              40.998351
            ],
            [
              29.050277,
              40.998359
            ],
            [
              29.050408,
              40.998385
            ],
            [
              29.056348,
              40.998976
            ],
            [
              29.056768,
              40.999611
            ],
            [
              29.056858,
              40.99996
            ],
            [
              29.056531,
              41.000774
            ],
            [
              29.056472,
              41.006311
            ],
            [
              29.056485,
              41.006671
            ],
            [
              29.054229,
              41.010626
            ],
            [
              29.053915,
              41.010802
            ],
            [
              29.053536,
              41.010728
            ],
            [
              29.047579,
              41.010677
            ],
            [
              29.043744,
              41.009692
            ],
            [
              29.043702,
              41.009671
            ],
            [
              29.043517,
              41.009441
            ]
          ]
        ],
        "type": "Polygon"
      }
    },
    {
      "type": "Feature",
      "properties": {
        "group_index": 0,
        "value": 900,
        "center": [
          29.049932360088714,
          41.00405552763725
        ],
        "ada_parsel": "1103-8",
        "AA_MINS": 15,
        "TOTAL_POP": 18880
      },
      "geometry": {
        "coordinates": [
          [
            [
              29.039573,
              41.011353
            ],
            [
              29.039171,
              41.008962
            ],
            [
              29.03751,
              41.003682
            ],
            [
              29.037442,
              41.003329
            ],
            [
              29.038791,
              41.000196
            ],
            [
              29.039043,
              40.999939
            ],
            [
              29.039225,
              40.999933
            ],
            [
              29.039697,
              41.000005
            ],
            [
              29.040979,
              41.00006
            ],
            [
              29.045483,
              40.996138
            ],
            [
              29.045584,
              40.995793
            ],
            [
              29.049068,
              40.995456
            ],
            [
              29.053108,
              40.996859
            ],
            [
              29.057604,
              40.997162
            ],
            [
              29.058588,
              40.997404
            ],
            [
              29.060628,
              40.997906
            ],
            [
              29.060776,
              40.998234
            ],
            [
              29.060566,
              40.998328
            ],
            [
              29.058698,
              40.99999
            ],
            [
              29.058525,
              41.004271
            ],
            [
              29.060008,
              41.005931
            ],
            [
              29.060135,
              41.006149
            ],
            [
              29.060263,
              41.006367
            ],
            [
              29.059881,
              41.00828
            ],
            [
              29.057501,
              41.013085
            ],
            [
              29.055989,
              41.013685
            ],
            [
              29.053211,
              41.013838
            ],
            [
              29.047691,
              41.013209
            ],
            [
              29.047658,
              41.013189
            ],
            [
              29.042607,
              41.011532
            ],
            [
              29.040403,
              41.011728
            ],
            [
              29.040158,
              41.011736
            ],
            [
              29.040066,
              41.011724
            ],
            [
              29.039731,
              41.011677
            ],
            [
              29.039573,
              41.011353
            ]
          ]
        ],
        "type": "Polygon"
      }
    }
  ]
}